{"tenantId":"mh.aliba","moduleName":"lcms","court":[{"address":{"addressLine1":"Shivajinagar","addressLine2":"Maharashtra","city":"Pune","pincode":"411005"},"name":"Pune District Court","type":"District Court","code":"PDC","active":true,"tenantId":"mh.aliba"},{"address":{"addressLine1":"Shivajinagar","addressLine2":"Pune","city":"Pune","pincode":"411005"},"name":"Pune District Court","type":"Motor Accident Claim Tribunal","code":"PDCMACT","active":true,"tenantId":"mh.aliba"},{"address":{"addressLine1":"Opp. Nav Sonali Hsg, Near Ganesh Cinema","addressLine2":"Maharashtra","city":"Thane, Mumbai","pincode":"400601"},"name":"National Human Rights Commission","type":"National Human Rights Commission","code":"NHRC","active":true,"tenantId":"mh.aliba"},{"address":{"addressLine1":"Supreme Court, Mandi House","addressLine2":"New Delhi","city":"New Delhi","pincode":"110001"},"name":"Supreme Court of India","type":"Supreme Court","code":"SC","active":true,"tenantId":"mh.aliba"},{"address":{"addressLine1":"Sher Shah Road, Near India Gate","addressLine2":"New Delhi","city":"New Delhi","pincode":"110503"},"name":"High Court of Delhi","type":"High Court","code":"HCD","active":true,"tenantId":"mh.aliba"},{"address":{"addressLine1":"Hajarimal Somani Marg, Opp. Chhatrapati Shivaji Terminus","addressLine2":"Maharashtra","city":"Mumbai","pincode":"400001"},"name":"Maharashtra State Human Rights Commission","type":"State Human Rights Commission Court","code":"MSHRC","active":true,"tenantId":"mh.aliba"},{"address":{"addressLine1":"B, 2, Swami Vivekanand Road, Vasant Baug Society, Maharshi Nagar","addressLine2":"Maharashtra","city":"Pune","pincode":"411037"},"name":"Consumer Court","type":"District Consumer Court","code":"CC","active":true,"tenantId":"mh.aliba"},{"address":{"addressLine1":"PMT Building, Swargate","addressLine2":"Maharashtra","city":"Pune","pincode":"411042"},"name":"Company & Labour Court","type":"Industrial Court","code":"CLCIC","active":true,"tenantId":"mh.aliba"},{"address":{"addressLine1":"Commercial Building-1, Pmt Building, Swargate","addressLine2":"Maharashtra","city":"Pune","pincode":"411042"},"name":"Company & Labour Court","type":"Labour Court","code":"CLCLC","active":true,"tenantId":"mh.aliba"},{"address":{"addressLine1":"Shivajinagar","addressLine2":"Maharashtra","city":"Pune","pincode":"411005"},"name":"Pune District Court","type":"Criminal Court","code":"PDCCRC","active":true,"tenantId":"mh.aliba"},{"address":{"addressLine1":"Shivajinagar","addressLine2":"Maharashtra","city":"Pune","pincode":"411005"},"name":"Pune District Court","type":"Civil Court","code":"PDCCVC","active":true,"tenantId":"mh.aliba"},{"address":{"addressLine1":"Shivajinagar","addressLine2":"Maharashtra","city":"Pune","pincode":"411005"},"name":"Pune District Court","type":"Session Court","code":"PDCSEC","active":true,"tenantId":"mh.aliba"},{"address":{"addressLine1":"Shivajinagar","addressLine2":"Maharashtra","city":"Pune","pincode":"411005"},"name":"Pune District Court","type":"308 Court","code":"PDC308C","active":true,"tenantId":"mh.aliba"},{"address":{"addressLine1":null,"addressLine2":"Maharashtra","city":"Pune","pincode":null},"name":"Judicial Magistrate of First Class Court","type":"Judicial Magistrate of First Class Court","code":"JMFCC","active":true,"tenantId":"mh.aliba"},{"address":{"addressLine1":"Agarkar Nagar","addressLine2":"Maharashtra","city":"Pune","pincode":"411001"},"name":"National Green Tribunal Western Zone","type":"National Green Tribunal Court","code":"NGTC","active":true,"tenantId":"mh.aliba"},{"address":{"addressLine1":"Collector Office","addressLine2":"Maharashtra","city":"Pune","pincode":"411001"},"name":"District Collector","type":"Quasi Judicator","code":"DC","active":true,"tenantId":"mh.aliba"},{"name":"Supreme Court of India","code":"SC1","address":{"addressLine1":"Sher Shah Road, Near India Gate","addressLine2":"New Delhi","city":"New Delhi","pincode":"110503"},"active":true,"tenantId":"mh.aliba"},{"name":"Consumer Court","code":"CC1","address":{"addressLine1":"PMT Building, Swargate","addressLine2":"Maharastra","city":"Maharastra","pincode":"411042"},"active":true,"tenantId":"mh.aliba"},{"name":"SriNagar Court","code":"SR","address":{"addressLine1":"ss","addressLine2":"Maharastra","city":"Maharastra","pincode":"411042"},"active":true,"tenantId":"mh.aliba"},{"name":"Consumer Court","code":"SHSSJ1","address":{"addressLine1":"PMT Building, Swargate","addressLine2":"Maharastra","city":"Maharastra","pincode":"411042"},"active":true,"tenantId":"mh.aliba"},{"name":"SriNagar Court","code":"SR2","address":{"addressLine1":"PMT Building, Swargate","addressLine2":"Maharastra","city":"Maharastra","pincode":"411042"},"active":true,"tenantId":"mh.aliba"},{"name":"SriNagar Court","code":"SHSSJ2","address":{"addressLine1":"PMT Building, Swargate","addressLine2":"Maharastra","city":"Maharastra","pincode":"411042"},"active":true,"tenantId":"mh.aliba"},{"name":"Consumer Court","code":"CC3","address":{"addressLine1":"PMT Building, Swargate","addressLine2":"Maharastra","city":"Maharastra","pincode":"411042"},"active":true,"tenantId":"mh.aliba"},{"name":"Consumer Court","code":"CS4","address":{"addressLine1":"ss","addressLine2":"Pune","city":"Maharastra","pincode":"411042"},"active":true,"tenantId":"mh.aliba"},{"name":"Consumer Court","code":"CC5","address":{"addressLine1":"ss","addressLine2":"Pune","city":"Maharastra","pincode":"411042"},"active":true,"tenantId":"mh.aliba"},{"name":"SriNagar","code":"SHSSJ4","address":{"addressLine1":"ss","addressLine2":"Maharastra","city":"Pune","pincode":"411042"},"active":true,"tenantId":"mh.aliba"},{"name":"Bangalore Court","code":"BZ1","address":{"addressLine1":"Shrinagar","addressLine2":"Bangalore","city":"Bangalore","pincode":"560048"},"active":true,"tenantId":"mh.aliba"},{"name":"Consumer Court","code":"CC6","address":{"addressLine1":"PMT Building, Swargate","addressLine2":"Pune","city":"Maharastra","pincode":"560048"},"active":true,"tenantId":"mh.aliba"},{"name":"abcd court","code":"11223344","address":{"addressLine1":"test","addressLine2":"test","city":"bombay","pincode":"11111"},"active":true,"tenantId":"default"}]}